FENGYUN 1C DEB          
1 39112U 99025EVZ 17343.80862733  .00001051  00000-0  40303-3 0  9996
2 39112  99.1826 195.2594 0047376  47.7344 312.7840 14.32225175253236
